{
  "type": "FeatureCollection",
  "features": [
    {
      "type": "Feature",
      "properties": {
        "norad_id": 27954,
        "name": "GALAXY 13 (HORIZONS-1)",
        "group": "intelsat",
        "lat": 0.9215082395665266,
        "lon": 158.89320946057606,
        "alt_km": 35789.091185270314,
        "timestamp": "2025-12-20T14:38:01.626034+00:00",
        "meta_object_name": "GALAXY 13 (HORIZONS-1)",
        "meta_object_id": "2003-044A",
        "meta_epoch": "2025-12-20T03:57:24.400800",
        "meta_mean_motion": 1.00269643,
        "meta_eccentricity": 0.00023959,
        "meta_inclination": 0.9556,
        "meta_ra_of_asc_node": 86.3748,
        "meta_arg_of_pericenter": 177.2022,
        "meta_mean_anomaly": 94.7626,
        "meta_ephemeris_type": 0,
        "meta_classification_type": "U",
        "meta_norad_cat_id": 27954,
        "meta_element_set_no": 999,
        "meta_rev_at_epoch": 4477,
        "meta_bstar": 0,
        "meta_mean_motion_dot": 1.56e-06,
        "meta_mean_motion_ddot": 0,
        "tle_line1": "1 27954U 03044A   25354.16486575  .00000156  00000+0  00000+0 0  9999",
        "tle_line2": "2 27954   0.9556  86.3748 0002395 177.2022  94.7626  1.00269643 44777"
      },
      "geometry": {
        "type": "Point",
        "coordinates": [
          158.89320946057606,
          0.9215082395665266
        ]
      }
    },
    {
      "type": "Feature",
      "properties": {
        "norad_id": 28358,
        "name": "INTELSAT 10-02",
        "group": "intelsat",
        "lat": -0.029608174966405738,
        "lon": -52.02577876183206,
        "alt_km": 35782.72187836335,
        "timestamp": "2025-12-20T14:38:01.626046+00:00",
        "meta_object_name": "INTELSAT 10-02",
        "meta_object_id": "2004-022A",
        "meta_epoch": "2025-12-20T04:39:57.824928",
        "meta_mean_motion": 1.00270562,
        "meta_eccentricity": 8.818e-05,
        "meta_inclination": 0.0207,
        "meta_ra_of_asc_node": 69.8428,
        "meta_arg_of_pericenter": 231.0131,
        "meta_mean_anomaly": 217.203,
        "meta_ephemeris_type": 0,
        "meta_classification_type": "U",
        "meta_norad_cat_id": 28358,
        "meta_element_set_no": 999,
        "meta_rev_at_epoch": 7876,
        "meta_bstar": 0,
        "meta_mean_motion_dot": 1.3e-07,
        "meta_mean_motion_ddot": 0,
        "tle_line1": "1 28358U 04022A   25354.19441927  .00000013  00000+0  00000+0 0  9992",
        "tle_line2": "2 28358   0.0207  69.8428 0000881 231.0131 217.2030  1.00270562 78768"
      },
      "geometry": {
        "type": "Point",
        "coordinates": [
          -52.02577876183206,
          -0.029608174966405738
        ]
      }
    },
    {
      "type": "Feature",
      "properties": {
        "norad_id": 28626,
        "name": "XM-3 (RHYTHM)",
        "group": "intelsat",
        "lat": -0.14644098972593877,
        "lon": 25.847262503630574,
        "alt_km": 36153.46259373963,
        "timestamp": "2025-12-20T14:38:01.626058+00:00",
        "meta_object_name": "XM-3 (RHYTHM)",
        "meta_object_id": "2005-008A",
        "meta_epoch": "2025-12-20T03:20:05.476128",
        "meta_mean_motion": 0.98949989,
        "meta_eccentricity": 0.00019193,
        "meta_inclination": 0.193,
        "meta_ra_of_asc_node": 81.965,
        "meta_arg_of_pericenter": 278.2015,
        "meta_mean_anomaly": 217.9729,
        "meta_ephemeris_type": 0,
        "meta_classification_type": "U",
        "meta_norad_cat_id": 28626,
        "meta_element_set_no": 999,
        "meta_rev_at_epoch": 4082,
        "meta_bstar": 0,
        "meta_mean_motion_dot": 6.8e-07,
        "meta_mean_motion_ddot": 0,
        "tle_line1": "1 28626U 05008A   25354.13895227  .00000068  00000+0  00000+0 0  9995",
        "tle_line2": "2 28626   0.1930  81.9650 0001919 278.2015 217.9729  0.98949989 40829"
      },
      "geometry": {
        "type": "Point",
        "coordinates": [
          25.847262503630574,
          -0.14644098972593877
        ]
      }
    },
    {
      "type": "Feature",
      "properties": {
        "norad_id": 28659,
        "name": "DIRECTV 8",
        "group": "intelsat",
        "lat": -0.01838264416129283,
        "lon": -170.13457662813178,
        "alt_km": 35785.793553853655,
        "timestamp": "2025-12-20T14:38:01.626070+00:00",
        "meta_object_name": "DIRECTV 8",
        "meta_object_id": "2005-019A",
        "meta_epoch": "2025-12-20T04:36:46.152576",
        "meta_mean_motion": 1.00271258,
        "meta_eccentricity": 0.00028269,
        "meta_inclination": 0.0156,
        "meta_ra_of_asc_node": 333.8724,
        "meta_arg_of_pericenter": 304.0914,
        "meta_mean_anomaly": 121.2184,
        "meta_ephemeris_type": 0,
        "meta_classification_type": "U",
        "meta_norad_cat_id": 28659,
        "meta_element_set_no": 999,
        "meta_rev_at_epoch": 7527,
        "meta_bstar": 0,
        "meta_mean_motion_dot": 2.5e-07,
        "meta_mean_motion_ddot": 0,
        "tle_line1": "1 28659U 05019A   25354.19220084  .00000025  00000+0  00000+0 0  9995",
        "tle_line2": "2 28659   0.0156 333.8724 0002826 304.0914 121.2184  1.00271258 75279"
      },
      "geometry": {
        "type": "Point",
        "coordinates": [
          -170.13457662813178,
          -0.01838264416129283
        ]
      }
    },
    {
      "type": "Feature",
      "properties": {
        "norad_id": 28702,
        "name": "GALAXY 28 (G-28)",
        "group": "intelsat",
        "lat": 1.8443518816014763,
        "lon": -139.7333389107419,
        "alt_km": 35778.93556919081,
        "timestamp": "2025-12-20T14:38:01.626083+00:00",
        "meta_object_name": "GALAXY 28 (G-28)",
        "meta_object_id": "2005-022A",
        "meta_epoch": "2025-12-20T00:49:30.482112",
        "meta_mean_motion": 1.00271047,
        "meta_eccentricity": 0.00029384,
        "meta_inclination": 2.8382,
        "meta_ra_of_asc_node": 81.1982,
        "meta_arg_of_pericenter": 194.0723,
        "meta_mean_anomaly": 97.2981,
        "meta_ephemeris_type": 0,
        "meta_classification_type": "U",
        "meta_norad_cat_id": 28702,
        "meta_element_set_no": 999,
        "meta_rev_at_epoch": 5017,
        "meta_bstar": 0,
        "meta_mean_motion_dot": -1.65e-06,
        "meta_mean_motion_ddot": 0,
        "tle_line1": "1 28702U 05022A   25354.03438058 -.00000165  00000+0  00000+0 0  9999",
        "tle_line2": "2 28702   2.8382  81.1982 0002938 194.0723  97.2981  1.00271047 50172"
      },
      "geometry": {
        "type": "Point",
        "coordinates": [
          -139.7333389107419,
          1.8443518816014763
        ]
      }
    },
    {
      "type": "Feature",
      "properties": {
        "norad_id": 29236,
        "name": "GALAXY 16 (G-16)",
        "group": "intelsat",
        "lat": 0.0015530136498227917,
        "lon": -150.09066424777149,
        "alt_km": 35780.87328735102,
        "timestamp": "2025-12-20T14:38:01.626098+00:00",
        "meta_object_name": "GALAXY 16 (G-16)",
        "meta_object_id": "2006-023A",
        "meta_epoch": "2025-12-20T06:03:31.250592",
        "meta_mean_motion": 1.00271198,
        "meta_eccentricity": 0.00024594,
        "meta_inclination": 0.0085,
        "meta_ra_of_asc_node": 242.9238,
        "meta_arg_of_pericenter": 25.9007,
        "meta_mean_anomaly": 172.1406,
        "meta_ephemeris_type": 0,
        "meta_classification_type": "U",
        "meta_norad_cat_id": 29236,
        "meta_element_set_no": 999,
        "meta_rev_at_epoch": 7117,
        "meta_bstar": 0,
        "meta_mean_motion_dot": -1.03e-06,
        "meta_mean_motion_ddot": 0,
        "tle_line1": "1 29236U 06023A   25354.25244503 -.00000103  00000+0  00000+0 0  9990",
        "tle_line2": "2 29236   0.0085 242.9238 0002459  25.9007 172.1406  1.00271198 71176"
      },
      "geometry": {
        "type": "Point",
        "coordinates": [
          -150.09066424777149,
          0.0015530136498227917
        ]
      }
    },
    {
      "type": "Feature",
      "properties": {
        "norad_id": 29494,
        "name": "DIRECTV 9S",
        "group": "intelsat",
        "lat": 1.6006822744888891,
        "lon": -152.28305815817106,
        "alt_km": 35781.297200917346,
        "timestamp": "2025-12-20T14:38:01.626110+00:00",
        "meta_object_name": "DIRECTV 9S",
        "meta_object_id": "2006-043A",
        "meta_epoch": "2025-12-20T05:59:26.920032",
        "meta_mean_motion": 1.00271669,
        "meta_eccentricity": 0.00028213,
        "meta_inclination": 1.9584,
        "meta_ra_of_asc_node": 83.134,
        "meta_arg_of_pericenter": 191.9305,
        "meta_mean_anomaly": 162.6731,
        "meta_ephemeris_type": 0,
        "meta_classification_type": "U",
        "meta_norad_cat_id": 29494,
        "meta_element_set_no": 999,
        "meta_rev_at_epoch": 4958,
        "meta_bstar": 0,
        "meta_mean_motion_dot": -9.1e-07,
        "meta_mean_motion_ddot": 0,
        "tle_line1": "1 29494U 06043A   25354.24961713 -.00000091  00000+0  00000+0 0  9992",
        "tle_line2": "2 29494   1.9584  83.1340 0002821 191.9305 162.6731  1.00271669 49581"
      },
      "geometry": {
        "type": "Point",
        "coordinates": [
          -152.28305815817106,
          1.6006822744888891
        ]
      }
    }
  ]
}